{
  "norad_id": 65495,
  "name": "STARLINK-34446",
  "history": [
    {
      "epoch": "2026-03-28T12:56:00.391488",
      "apogee_km": 476.1575812722431,
      "perigee_km": 474.24262181932954,
      "latitude_deg": 43.1920626210832,
      "longitude_deg": 61.23376832017675,
      "semi_major_axis_km": 6853.337101545786,
      "eccentricity": 0.00013971,
      "inclination_deg": 53.1593,
      "raan_deg": 183.6127,
      "arg_perigee_deg": 72.2668,
      "mean_anomaly_deg": 287.8485,
      "mean_motion_rev_day": 15.30205013
    }
  ]
}